     2.11           N: GPS NAV DATA     G                   RINEX VERSION / TYPE
LEICA GEO OFFICE 8.4                    22-5-25 18:37       PGM / RUN BY / DATE
    18                                                      LEAP SECONDS
                                                            END OF HEADER
 1 25  5 22  0  0  0.0 2.677156589925D-04 1.250555214938D-11 0.000000000000D+00
    2.220000000000D+02-7.531250000000D+00 4.385896978931D-09 3.046480042808D-01
   -3.818422555923D-07 5.362404044718D-04 1.058354973793D-05 5.153727901459D+03
    3.456000000000D+05 3.352761268616D-08 1.992758673780D+00-9.313225746155D-09
    9.593550790698D-01 1.765625000000D+02 2.001455718836D-01-8.043548938019D-09
   -4.035882392173D-11 1.000000000000D+00 2.367000000000D+03 0.000000000000D+00
    2.000000000000D+00 0.000000000000D+00-9.313225746155D-09 9.900000000000D+02
    3.456000000000D+05
 1 25  5 22  2  0  0.0 2.678055316210D-04 1.250555214938D-11 0.000000000000D+00
    2.230000000000D+02-1.065625000000D+01 4.351252691492D-09 1.356958106478D+00
   -7.562339305878D-07 5.359011702240D-04 9.935349225998D-06 5.153725852966D+03
    3.528000000000D+05 1.303851604462D-08 1.992700910460D+00 1.862645149231D-09
    9.593547703941D-01 1.872187500000D+02 1.979820345407D-01-8.029977571766D-09
   -5.393081814464D-11 1.000000000000D+00 2.367000000000D+03 0.000000000000D+00
    2.000000000000D+00 0.000000000000D+00-9.313225746155D-09 9.910000000000D+02
    3.528000000000D+05
 1 25  5 22  4  0  0.0 2.678958699107D-04 1.250555214938D-11 0.000000000000D+00
    2.240000000000D+02-1.859375000000D+01 4.282321164339D-09 2.406492080237D+00
   -9.555369615555D-07 5.351714789867D-04 9.549781680107D-06 5.153726861954D+03
    3.600000000000D+05 2.607703208923D-08 1.992643126659D+00 3.725290298462D-09
    9.593543315187D-01 1.927812500000D+02 1.985960666090D-01-8.037120302617D-09
   -6.250260031759D-11 1.000000000000D+00 2.367000000000D+03 0.000000000000D+00
    2.000000000000D+00 0.000000000000D+00-9.313225746155D-09 9.920000000000D+02
    3.600000000000D+05
 2 25  5 21 23 59 44.0-1.643868163228D-04 9.208633855451D-12 0.000000000000D+00
    4.000000000000D+00-1.765625000000D+01 4.222318938929D-09 2.016538907477D+00
   -9.853392839432D-07 1.639299036469D-02 9.804964065552D-06 5.153709526062D+03
    3.455840000000D+05 2.495944499969D-07 1.828730253955D+00 6.332993507385D-08
    9.654753138879D-01 1.911875000000D+02-9.858267792081D-01-7.763180320808D-09
   -2.978695623490D-10 1.000000000000D+00 2.367000000000D+03 0.000000000000D+00
    2.000000000000D+00 0.000000000000D+00-1.769512891769D-08 4.000000000000D+00
    3.455840000000D+05
 2 25  5 22  2  0  0.0-1.643197610974D-04 9.208633855451D-12 0.000000000000D+00
    6.000000000000D+00-1.556250000000D+01 4.176245571585D-09 3.069057213638D+00
   -8.754432201385D-07 1.639392273501D-02 9.190291166306D-06 5.153707632065D+03
    3.528000000000D+05 1.359730958939D-07 1.828673543936D+00 2.589076757431D-07
    9.654735934962D-01 1.986562500000D+02-9.858538505071D-01-7.732465334698D-09
   -1.492919260437D-10 1.000000000000D+00 2.367000000000D+03 0.000000000000D+00
    2.000000000000D+00 0.000000000000D+00-1.769512891769D-08 6.000000000000D+00
    3.528000000000D+05
 3 25  5 22  1 59 44.0 6.918883882463D-04 1.136868377216D-12 0.000000000000D+00
    8.000000000000D+00 3.590625000000D+01 4.112671092571D-09-5.425577165067D-01
    1.978129148483D-06 6.251326994970D-03 7.566064596176D-06 5.153774017334D+03
    3.527840000000D+05 3.725290298462D-08 2.970713654651D+00 8.940696716309D-08
    9.899059302411D-01 2.554375000000D+02 1.162255806997D+00-8.003905094256D-09
    4.739483250304D-10 1.000000000000D+00 2.367000000000D+03 0.000000000000D+00
    2.000000000000D+00 0.000000000000D+00 1.396983861923D-09 8.000000000000D+00
    3.527840000000D+05
 3 25  5 22  4  0  0.0 6.918963044882D-04 1.023181539495D-12 0.000000000000D+00
    9.000000000000D+00 3.734375000000D+01 3.949093052569D-09 5.098285847041D-01
    1.724809408188D-06 6.252391962335D-03 7.757917046547D-06 5.153776050568D+03
    3.600000000000D+05-6.519258022308D-08 2.970656477961D+00 6.519258022308D-08
    9.899091940113D-01 2.460000000000D+02 1.162318841211D+00-7.961760140063D-09
    3.993023411919D-10 1.000000000000D+00 2.367000000000D+03 0.000000000000D+00
    2.000000000000D+00 0.000000000000D+00 1.396983861923D-09 9.000000000000D+00
    3.600000000000D+05
 3 25  5 22  5 59 44.0 6.919046863914D-04 1.136868377216D-12 0.000000000000D+00
    6.900000000000D+01 2.825000000000D+01 3.788372282543D-09 1.557417724448D+00
    1.437962055206D-06 6.253576721065D-03 8.104369044304D-06 5.153779136658D+03
    3.671840000000D+05-1.713633537292D-07 2.970598956022D+00-8.381903171539D-08
    9.899126494238D-01 2.365937500000D+02 1.162508618259D+00-7.850684546895D-09
    4.850201906770D-10 1.000000000000D+00 2.367000000000D+03 0.000000000000D+00
    2.000000000000D+00 0.000000000000D+00 1.396983861923D-09 6.900000000000D+01
    3.671840000000D+05
 3 25  5 22  6  0  0.0 6.919042207301D-04 1.023181539495D-12 0.000000000000D+00
    1.200000000000D+01 2.825000000000D+01 3.788372282543D-09 1.559751355276D+00
    1.437962055206D-06 6.253577186726D-03 8.104369044304D-06 5.153779132843D+03
    3.672000000000D+05-1.713633537292D-07 2.970598831674D+00-8.381903171539D-08
    9.899126523497D-01 2.365937500000D+02 1.162508577297D+00-7.850684546895D-09
    4.850201906770D-10 1.000000000000D+00 2.367000000000D+03 0.000000000000D+00
    2.000000000000D+00 0.000000000000D+00 1.396983861923D-09 1.200000000000D+01
    3.672000000000D+05
 4 25  5 22  6  0  0.0 5.694408901036D-04 4.661160346586D-12 0.000000000000D+00
    1.520000000000D+02-4.556250000000D+01 4.738411440997D-09-1.832167349261D+00
   -2.615153789520D-06 3.278156509623D-03 5.258247256279D-06 5.153619319916D+03
    3.672000000000D+05 7.823109626770D-08-2.238376927075D+00-6.519258022308D-08
    9.676436071774D-01 2.820312500000D+02-2.901788984713D+00-8.290702346869D-09
    6.321691781164D-11 1.000000000000D+00 2.367000000000D+03 0.000000000000D+00
    2.000000000000D+00 0.000000000000D+00-4.656612873077D-09 6.640000000000D+02
    3.672000000000D+05
 5 25  5 22  5 59 44.0-2.104835584760D-04-1.023181539495D-12 0.000000000000D+00
    7.000000000000D+00 4.087500000000D+01 4.110171314409D-09-1.214129831712D+00
    2.406537532806D-06 5.755740450695D-03 7.987022399902D-06 5.153562091827D+03
    3.671840000000D+05 3.352761268616D-08 2.914621410984D+00 1.043081283569D-07
    9.766760730159D-01 2.330625000000D+02 1.356880633262D+00-8.039263477144D-09
    5.271648118033D-10 1.000000000000D+00 2.367000000000D+03 0.000000000000D+00
    2.000000000000D+00 0.000000000000D+00-1.071020960808D-08 7.000000000000D+00
    3.671840000000D+05
 5 25  5 22  8  0  0.0-2.104905433953D-04-1.023181539495D-12 0.000000000000D+00
    1.700000000000D+01 3.521875000000D+01 4.055883184861D-09-1.616243772869D-01
    1.946464180946D-06 5.755103426054D-03 8.121132850647D-06 5.153560646057D+03
    3.744000000000D+05-1.061707735062D-07 2.914563821751D+00 1.415610313416D-07
    9.766798883062D-01 2.328437500000D+02 1.356955205511D+00-7.988903760747D-09
    4.607334791462D-10 1.000000000000D+00 2.367000000000D+03 0.000000000000D+00
    2.000000000000D+00 0.000000000000D+00-1.071020960808D-08 1.700000000000D+01
    3.744000000000D+05
 5 25  5 22 10  0  0.0-2.104975283146D-04-1.023181539495D-12 0.000000000000D+00
    1.800000000000D+01 2.756250000000D+01 4.047668422658D-09 8.884571067304D-01
    1.469627022743D-06 5.756907863542D-03 8.938834071159D-06 5.153564498901D+03
    3.816000000000D+05-8.381903171539D-08 2.914507067844D+00-6.332993507385D-08
    9.766824937633D-01 2.202500000000D+02 1.357119034781D+00-7.997833506579D-09
    3.025125983047D-10 1.000000000000D+00 2.367000000000D+03 0.000000000000D+00
    2.000000000000D+00 0.000000000000D+00-1.071020960808D-08 1.800000000000D+01
    3.816000000000D+05
 5 25  5 22 12  0  0.0-2.105045132339D-04-1.023181539495D-12 0.000000000000D+00
    1.900000000000D+01 2.618750000000D+01 4.056954772125D-09 1.938809138429D+00
    1.229345798492D-06 5.757188657299D-03 9.093433618546D-06 5.153563430786D+03
    3.888000000000D+05 4.284083843231D-08 2.914449626365D+00-1.490116119385D-07
    9.766852937885D-01 2.134687500000D+02 1.357011330363D+00-7.871042484453D-09
    3.246563851089D-10 1.000000000000D+00 2.367000000000D+03 0.000000000000D+00
    2.000000000000D+00 0.000000000000D+00-1.071020960808D-08 1.900000000000D+01
    3.888000000000D+05
 6 25  5 22  1 59 44.0-3.691744059324D-04-1.887201506179D-11 0.000000000000D+00
    2.000000000000D+00-2.046875000000D+01 3.661581038372D-09 6.770893834677D-01
   -9.108334779739D-07 3.366765449755D-03 1.087598502636D-05 5.153576326370D+03
    3.527840000000D+05 4.656612873077D-08 1.935180077549D+00-9.499490261078D-08
    9.885604508365D-01 1.811562500000D+02-6.393586078981D-01-7.751037145454D-09
   -6.035965477436D-11 1.000000000000D+00 2.367000000000D+03 0.000000000000D+00
    2.000000000000D+00 0.000000000000D+00 3.725290298462D-09 2.000000000000D+00
    3.527840000000D+05
 6 25  5 22  4  0  0.0-3.693099133670D-04-1.875832822407D-11 0.000000000000D+00
    9.000000000000D+00-1.546875000000D+01 3.533004333534D-09 1.729426472114D+00
   -7.469207048416D-07 3.367230761796D-03 1.071579754353D-05 5.153577987671D+03
    3.600000000000D+05 3.166496753693D-08 1.935125163993D+00 6.332993507385D-08
    9.885603147851D-01 1.860625000000D+02-6.391290906806D-01-7.615674313399D-09
   -1.303625679627D-10 1.000000000000D+00 2.367000000000D+03 0.000000000000D+00
    2.000000000000D+00 0.000000000000D+00 3.725290298462D-09 9.000000000000D+00
    3.600000000000D+05
